STARLINK-1559           
1 46077U 20055BC  26068.23360559  .00042685  00000+0  14779-2 0  9995
2 46077  53.0254  76.0659 0004229  33.9710 326.1559 15.29461733309518
STARLINK-34622          
1 66015U 25232L   26068.36800713  .00025408  00000+0  86725-3 0  9991
2 66015  53.1591 105.5868 0001258  78.9672 281.1470 15.30192748 23370
