[{"OBJECT_NAME":"STARLINK-1559","OBJECT_ID":"2020-055BC","EPOCH":"2026-03-09T05:36:23.522976","MEAN_MOTION":15.29461733,"ECCENTRICITY":0.0004229,"INCLINATION":53.0254,"RA_OF_ASC_NODE":76.0659,"ARG_OF_PERICENTER":33.971,"MEAN_ANOMALY":326.1559,"EPHEMERIS_TYPE":0,"CLASSIFICATION_TYPE":"U","NORAD_CAT_ID":46077,"ELEMENT_SET_NO":999,"REV_AT_EPOCH":30951,"BSTAR":0.0014778793,"MEAN_MOTION_DOT":0.00042685,"MEAN_MOTION_DDOT":0},{"OBJECT_NAME":"STARLINK-34622","OBJECT_ID":"2025-232L","EPOCH":"2026-03-09T08:49:55.816032","MEAN_MOTION":15.30192748,"ECCENTRICITY":0.00012586,"INCLINATION":53.1591,"RA_OF_ASC_NODE":105.5868,"ARG_OF_PERICENTER":78.9672,"MEAN_ANOMALY":281.147,"EPHEMERIS_TYPE":0,"CLASSIFICATION_TYPE":"U","NORAD_CAT_ID":66015,"ELEMENT_SET_NO":999,"REV_AT_EPOCH":2337,"BSTAR":0.00086724556,"MEAN_MOTION_DOT":0.00025408,"MEAN_MOTION_DDOT":0}]
